{"type": "FeatureCollection", "features": [ {"type": "Feature", "properties": {"norad_id": 39122, "name": "EUTELSAT 117 WEST A", "group": "eutelsat", "lat": -0.02402544649231161, "lon": -54.35542373913524, "alt_km": 35776.81427231536, "timestamp": "2025-12-12T22:42:12.221385+00:00", "meta": {"OBJECT_NAME": "EUTELSAT 117 WEST A", "OBJECT_ID": "2013-012A", "EPOCH": "2025-12-12T06:04:38.695296", "MEAN_MOTION": 1.00271563, "ECCENTRICITY": 0.00029357, "INCLINATION": 0.0151, "RA_OF_ASC_NODE": 11.6569, "ARG_OF_PERICENTER": 252.5323, "MEAN_ANOMALY": 151.3674, "EPHEMERIS_TYPE": 0, "CLASSIFICATION_TYPE": "U", "NORAD_CAT_ID": 39122, "ELEMENT_SET_NO": 999, "REV_AT_EPOCH": 4655, "BSTAR": 0, "MEAN_MOTION_DOT": -3e-08, "MEAN_MOTION_DDOT": 0}, "tle": {"line1": "1 39122U 13012A   25346.25322564 -.00000003  00000+0  00000+0 0  9995", "line2": "2 39122   0.0151  11.6569 0002935 252.5323 151.3674  1.00271563 46557"}}, "geometry": {"type": "Point", "coordinates": [-54.35542373913524, -0.02402544649231161]}}, {"type": "Feature", "properties": {"norad_id": 39163, "name": "EUTELSAT 7B", "group": "eutelsat", "lat": 0.07318251309300053, "lon": 69.4756564927606, "alt_km": 35793.135707336995, "timestamp": "2025-12-12T22:42:12.221397+00:00", "meta": {"OBJECT_NAME": "EUTELSAT 7B", "OBJECT_ID": "2013-022A", "EPOCH": "2025-12-12T03:14:30.886080", "MEAN_MOTION": 1.00272809, "ECCENTRICITY": 0.00046245, "INCLINATION": 0.0731, "RA_OF_ASC_NODE": 20.1699, "ARG_OF_PERICENTER": 297.0742, "MEAN_ANOMALY": 179.4643, "EPHEMERIS_TYPE": 0, "CLASSIFICATION_TYPE": "U", "NORAD_CAT_ID": 39163, "ELEMENT_SET_NO": 999, "REV_AT_EPOCH": 4608, "BSTAR": 0, "MEAN_MOTION_DOT": 5.7e-07, "MEAN_MOTION_DDOT": 0}, "tle": {"line1": "1 39163U 13022A   25346.13507970  .00000057  00000+0  00000+0 0  9992", "line2": "2 39163   0.0731  20.1699 0004624 297.0742 179.4643  1.00272809 46080"}}, "geometry": {"type": "Point", "coordinates": [69.4756564927606, 0.07318251309300053]}}, {"type": "Feature", "properties": {"norad_id": 39612, "name": "EXPRESS-AT1", "group": "eutelsat", "lat": 0.01567383829258748, "lon": 118.41337468317595, "alt_km": 35786.702693503874, "timestamp": "2025-12-12T22:42:12.221409+00:00", "meta": {"OBJECT_NAME": "EXPRESS-AT1", "OBJECT_ID": "2014-010A", "EPOCH": "2025-12-12T05:11:13.811712", "MEAN_MOTION": 1.00270477, "ECCENTRICITY": 1.93e-05, "INCLINATION": 0.0169, "RA_OF_ASC_NODE": 320.8587, "ARG_OF_PERICENTER": 270.5831, "MEAN_ANOMALY": 343.5205, "EPHEMERIS_TYPE": 0, "CLASSIFICATION_TYPE": "U", "NORAD_CAT_ID": 39612, "ELEMENT_SET_NO": 999, "REV_AT_EPOCH": 4294, "BSTAR": 0, "MEAN_MOTION_DOT": 0, "MEAN_MOTION_DDOT": 0}, "tle": {"line1": "1 39612U 14010A   25346.21613208  .00000000  00000+0  00000+0 0  9998", "line2": "2 39612   0.0169 320.8587 0000193 270.5831 343.5205  1.00270477 42940"}}, "geometry": {"type": "Point", "coordinates": [118.41337468317595, 0.01567383829258748]}}, {"type": "Feature", "properties": {"norad_id": 39613, "name": "EXPRESS-AT2", "group": "eutelsat", "lat": -0.030073482369234565, "lon": -157.73271278590207, "alt_km": 35786.734570366265, "timestamp": "2025-12-12T22:42:12.221422+00:00", "meta": {"OBJECT_NAME": "EXPRESS-AT2", "OBJECT_ID": "2014-010B", "EPOCH": "2025-12-12T07:17:54.181248", "MEAN_MOTION": 1.00269965, "ECCENTRICITY": 0.00015347, "INCLINATION": 0.0172, "RA_OF_ASC_NODE": 306.1253, "ARG_OF_PERICENTER": 346.9448, "MEAN_ANOMALY": 37.518, "EPHEMERIS_TYPE": 0, "CLASSIFICATION_TYPE": "U", "NORAD_CAT_ID": 39613, "ELEMENT_SET_NO": 999, "REV_AT_EPOCH": 4262, "BSTAR": 0, "MEAN_MOTION_DOT": -2.71e-06, "MEAN_MOTION_DDOT": 0}, "tle": {"line1": "1 39613U 14010B   25346.30409932 -.00000271  00000+0  00000+0 0  9997", "line2": "2 39613   0.0172 306.1253 0001534 346.9448  37.5180  1.00269965 42621"}}, "geometry": {"type": "Point", "coordinates": [-157.73271278590207, -0.030073482369234565]}}, {"type": "Feature", "properties": {"norad_id": 39773, "name": "EUTELSAT 3B", "group": "eutelsat", "lat": 0.0784933323583462, "lon": 65.51184498349073, "alt_km": 35805.14481795561, "timestamp": "2025-12-12T22:42:12.221434+00:00", "meta": {"OBJECT_NAME": "EUTELSAT 3B", "OBJECT_ID": "2014-030A", "EPOCH": "2025-12-12T03:13:23.493216", "MEAN_MOTION": 1.00270499, "ECCENTRICITY": 0.00045969, "INCLINATION": 0.0614, "RA_OF_ASC_NODE": 347.8073, "ARG_OF_PERICENTER": 242.4386, "MEAN_ANOMALY": 262.2867, "EPHEMERIS_TYPE": 0, "CLASSIFICATION_TYPE": "U", "NORAD_CAT_ID": 39773, "ELEMENT_SET_NO": 999, "REV_AT_EPOCH": 4219, "BSTAR": 0, "MEAN_MOTION_DOT": 2.9e-07, "MEAN_MOTION_DDOT": 0}, "tle": {"line1": "1 39773U 14030A   25346.13429969  .00000029  00000+0  00000+0 0  9999", "line2": "2 39773   0.0614 347.8073 0004596 242.4386 262.2867  1.00270499 42198"}}, "geometry": {"type": "Point", "coordinates": [65.51184498349073, 0.0784933323583462]}}, {"type": "Feature", "properties": {"norad_id": 40425, "name": "EUTELSAT 115 WEST B", "group": "eutelsat", "lat": 0.0036011110814095555, "lon": -52.46167267339829, "alt_km": 35786.331773078775, "timestamp": "2025-12-12T22:42:12.221446+00:00", "meta": {"OBJECT_NAME": "EUTELSAT 115 WEST B", "OBJECT_ID": "2015-010B", "EPOCH": "2025-12-12T06:05:08.647584", "MEAN_MOTION": 1.00273318, "ECCENTRICITY": 1.672e-05, "INCLINATION": 0.0099, "RA_OF_ASC_NODE": 150.4217, "ARG_OF_PERICENTER": 340.8536, "MEAN_ANOMALY": 286.3181, "EPHEMERIS_TYPE": 0, "CLASSIFICATION_TYPE": "U", "NORAD_CAT_ID": 40425, "ELEMENT_SET_NO": 999, "REV_AT_EPOCH": 3951, "BSTAR": 0, "MEAN_MOTION_DOT": -1.5e-07, "MEAN_MOTION_DDOT": 0}, "tle": {"line1": "1 40425U 15010B   25346.25357231 -.00000015  00000+0  00000+0 0  9995", "line2": "2 40425   0.0099 150.4217 0000167 340.8536 286.3181  1.00273318 39510"}}, "geometry": {"type": "Point", "coordinates": [-52.46167267339829, 0.0036011110814095555]}}, {"type": "Feature", "properties": {"norad_id": 40875, "name": "EUTELSAT 8 WEST B", "group": "eutelsat", "lat": 0.06592387023684786, "lon": 54.46681986701574, "alt_km": 35801.89331161328, "timestamp": "2025-12-12T22:42:12.221458+00:00", "meta": {"OBJECT_NAME": "EUTELSAT 8 WEST B", "OBJECT_ID": "2015-039B", "EPOCH": "2025-12-12T04:52:53.067936", "MEAN_MOTION": 1.00271635, "ECCENTRICITY": 0.00042073, "INCLINATION": 0.0654, "RA_OF_ASC_NODE": 6.8016, "ARG_OF_PERICENTER": 255.2683, "MEAN_ANOMALY": 244.3196, "EPHEMERIS_TYPE": 0, "CLASSIFICATION_TYPE": "U", "NORAD_CAT_ID": 40875, "ELEMENT_SET_NO": 999, "REV_AT_EPOCH": 3778, "BSTAR": 0, "MEAN_MOTION_DOT": -5.6e-07, "MEAN_MOTION_DDOT": 0}, "tle": {"line1": "1 40875U 15039B   25346.20339199 -.00000056  00000+0  00000+0 0  9998", "line2": "2 40875   0.0654   6.8016 0004207 255.2683 244.3196  1.00271635 37785"}}, "geometry": {"type": "Point", "coordinates": [54.46681986701574, 0.06592387023684786]}}, {"type": "Feature", "properties": {"norad_id": 41310, "name": "EUTELSAT 9B", "group": "eutelsat", "lat": 0.023941809082052595, "lon": 71.44801143714929, "alt_km": 35805.403644176185, "timestamp": "2025-12-12T22:42:12.221470+00:00", "meta": {"OBJECT_NAME": "EUTELSAT 9B", "OBJECT_ID": "2016-005A", "EPOCH": "2025-12-11T22:06:55.623168", "MEAN_MOTION": 1.00269719, "ECCENTRICITY": 0.0004684, "INCLINATION": 0.0432, "RA_OF_ASC_NODE": 62.511, "ARG_OF_PERICENTER": 207.2212, "MEAN_ANOMALY": 151.8834, "EPHEMERIS_TYPE": 0, "CLASSIFICATION_TYPE": "U", "NORAD_CAT_ID": 41310, "ELEMENT_SET_NO": 999, "REV_AT_EPOCH": 3623, "BSTAR": 0, "MEAN_MOTION_DOT": 7e-07, "MEAN_MOTION_DDOT": 0}, "tle": {"line1": "1 41310U 16005A   25345.92147712  .00000070  00000+0  00000+0 0  9998", "line2": "2 41310   0.0432  62.5110 0004684 207.2212 151.8834  1.00269719 36232"}}, "geometry": {"type": "Point", "coordinates": [71.44801143714929, 0.023941809082052595]}}, {"type": "Feature", "properties": {"norad_id": 41382, "name": "EUTELSAT 65 WEST A", "group": "eutelsat", "lat": -0.008560542168023875, "lon": -2.7397133181892723, "alt_km": 35785.82184230811, "timestamp": "2025-12-12T22:42:12.221481+00:00", "meta": {"OBJECT_NAME": "EUTELSAT 65 WEST A", "OBJECT_ID": "2016-014A", "EPOCH": "2025-12-12T06:19:22.284768", "MEAN_MOTION": 1.00272064, "ECCENTRICITY": 0.0002521, "INCLINATION": 0.0514, "RA_OF_ASC_NODE": 13.1071, "ARG_OF_PERICENTER": 255.6026, "MEAN_ANOMALY": 202.1469, "EPHEMERIS_TYPE": 0, "CLASSIFICATION_TYPE": "U", "NORAD_CAT_ID": 41382, "ELEMENT_SET_NO": 999, "REV_AT_EPOCH": 3566, "BSTAR": 0, "MEAN_MOTION_DOT": -2.66e-06, "MEAN_MOTION_DDOT": 0}, "tle": {"line1": "1 41382U 16014A   25346.26345237 -.00000266  00000+0  00000+0 0  9995", "line2": "2 41382   0.0514  13.1071 0002521 255.6026 202.1469  1.00272064 35665"}}, "geometry": {"type": "Point", "coordinates": [-2.7397133181892723, -0.008560542168023875]}}, {"type": "Feature", "properties": {"norad_id": 41589, "name": "EUTELSAT 117 WEST B", "group": "eutelsat", "lat": 0.004557701827664771, "lon": -54.538742453105066, "alt_km": 35785.37752706127, "timestamp": "2025-12-12T22:42:12.221493+00:00", "meta": {"OBJECT_NAME": "EUTELSAT 117 WEST B", "OBJECT_ID": "2016-038B", "EPOCH": "2025-12-11T23:13:36.273216", "MEAN_MOTION": 1.00275784, "ECCENTRICITY": 5.99e-05, "INCLINATION": 0.0087, "RA_OF_ASC_NODE": 154.6922, "ARG_OF_PERICENTER": 250.9411, "MEAN_ANOMALY": 266.7128, "EPHEMERIS_TYPE": 0, "CLASSIFICATION_TYPE": "U", "NORAD_CAT_ID": 41589, "ELEMENT_SET_NO": 999, "REV_AT_EPOCH": 3478, "BSTAR": 0, "MEAN_MOTION_DOT": -4e-08, "MEAN_MOTION_DDOT": 0}, "tle": {"line1": "1 41589U 16038B   25345.96778094 -.00000004  00000+0  00000+0 0  9997", "line2": "2 41589   0.0087 154.6922 0000599 250.9411 266.7128  1.00275784 34786"}}, "geometry": {"type": "Point", "coordinates": [-54.538742453105066, 0.004557701827664771]}}]}